NORAD_CAT_ID,OBJECT_NAME,OBJECT_TYPE,EPOCH,MEAN_MOTION,ECCENTRICITY,INCLINATION,RA_OF_ASC_NODE,ARG_OF_PERICENTER,MEAN_ANOMALY,BSTAR,MEAN_MOTION_DOT,MEAN_MOTION_DDOT,TLE_LINE0,TLE_LINE1,TLE_LINE2,SEMIMAJOR_AXIS,PERIOD,APOGEE,PERIGEE,DECAYED
52363.0,STARLINK-3830,PAYLOAD,2024-06-12 07:00:35,15.08838458,0.0001387,53.215,171.5303,91.9108,268.2043,-9.8425e-05,-1.854e-05,0.0,0 STARLINK-3830,1 52363U 22045AJ  24164.29208268 -.00001854  00000-0 -98425-4 0  9998,2 52363  53.2150 171.5303 0001387  91.9108 268.2043 15.08838458119864,6917.885,95.438,540.71,538.791,0.0
52363.0,STARLINK-3830,PAYLOAD,2024-06-12 10:11:22,15.08839868,0.000142,53.2151,170.9354,91.6846,268.4309,-5.4411e-05,-1.154e-05,0.0,0 STARLINK-3830,1 52363U 22045AJ  24164.42456218 -.00001154  00000-0 -54411-4 0  9993,2 52363  53.2151 170.9354 0001420  91.6846 268.4309 15.08839868119883,6917.881,95.438,540.728,538.763,0.0
52363.0,STARLINK-3830,PAYLOAD,2024-06-13 06:51:22,15.08838671,0.000142,53.2153,167.0704,88.9641,271.1513,-6.378e-05,-1.303e-05,0.0,0 STARLINK-3830,1 52363U 22045AJ  24165.28568114 -.00001303  00000-0 -63780-4 0  9992,2 52363  53.2153 167.0704 0001420  88.9641 271.1513 15.08838671120019,6917.884,95.438,540.732,538.767,0.0
52363.0,STARLINK-3830,PAYLOAD,2024-06-14 06:42:09,15.08836285,0.0001348,53.2153,162.6089,86.9418,273.1728,-9.9856e-05,-1.877e-05,0.0,0 STARLINK-3830,1 52363U 22045AJ  24166.27928136 -.00001877  00000-0 -99856-4 0  9995,2 52363  53.2153 162.6089 0001348  86.9418 273.1728 15.08836285120160,6917.892,95.438,540.689,538.824,0.0
52363.0,STARLINK-3830,PAYLOAD,2024-06-15 06:32:56,15.08836493,0.0001315,53.2153,158.1483,87.0469,273.0673,-5.062e-05,-1.093e-05,0.0,0 STARLINK-3830,1 52363U 22045AJ  24167.27288173 -.00001093  00000-0 -50620-4 0  9992,2 52363  53.2153 158.1483 0001315  87.0469 273.0673 15.08836493120316,6917.891,95.438,540.666,538.846,0.0
52363.0,STARLINK-3830,PAYLOAD,2024-06-15 16:05:15,15.08840679,0.0001316,53.2153,156.3639,87.862,272.2523,6.2201e-05,7.02e-06,0.0,0 STARLINK-3830,1 52363U 22045AJ  24167.67032056  .00000702  00000-0  62201-4 0  9995,2 52363  53.2153 156.3639 0001316  87.8620 272.2523 15.08840679120379,6917.878,95.438,540.654,538.833,0.0
52363.0,STARLINK-3830,PAYLOAD,2024-06-16 06:23:44,15.08837585,0.0001451,53.216,153.6899,95.7586,264.3571,3.1109e-06,-2.38e-06,0.0,0 STARLINK-3830,1 52363U 22045AJ  24168.26648242 -.00000238  00000-0  31109-5 0  9990,2 52363  53.2160 153.6899 0001451  95.7586 264.3571 15.08837585120461,6917.888,95.438,540.757,538.749,0.0
52363.0,STARLINK-3830,PAYLOAD,2024-06-16 22:17:35,15.08838336,0.000152,53.2162,150.7167,94.011,266.1056,-1.3996e-06,-3.1e-06,0.0,0 STARLINK-3830,1 52363U 22045AJ  24168.92888230 -.00000310  00000-0 -13996-5 0  9992,2 52363  53.2162 150.7167 0001520  94.0110 266.1056 15.08838336120565,6917.885,95.438,540.802,538.699,0.0
52363.0,STARLINK-3830,PAYLOAD,2024-06-17 15:46:50,15.08835304,0.000148,53.2156,147.4446,88.078,272.0382,-3.8507e-05,-9.01e-06,0.0,0 STARLINK-3830,1 52363U 22045AJ  24169.65752451 -.00000901  00000-0 -38507-4 0  9998,2 52363  53.2156 147.4446 0001480  88.0780 272.0382 15.08835304120674,6917.895,95.438,540.784,538.736,0.0
52363.0,STARLINK-3830,PAYLOAD,2024-06-17 22:08:22,15.08834992,0.0001508,53.2151,146.2553,87.6831,272.4334,-2.0997e-05,-6.22e-06,0.0,0 STARLINK-3830,1 52363U 22045AJ  24169.92248562 -.00000622  00000-0 -20997-4 0  9995,2 52363  53.2151 146.2553 0001508  87.6831 272.4334 15.08834992120716,6917.896,95.438,540.804,538.717,0.0
52363.0,STARLINK-3830,PAYLOAD,2024-06-18 07:40:41,15.08835718,0.0001438,53.2142,144.4706,89.6014,270.5142,5.277e-05,5.52e-06,0.0,0 STARLINK-3830,1 52363U 22045AJ  24170.31992635  .00000552  00000-0  52770-4 0  9991,2 52363  53.2142 144.4706 0001438  89.6014 270.5142 15.08835718120772,6917.893,95.438,540.753,538.764,0.0
52363.0,STARLINK-3830,PAYLOAD,2024-06-18 15:37:37,15.08840335,0.0001407,53.2138,142.9834,89.3877,270.7276,0.00015936,2.249e-05,0.0,0 STARLINK-3830,1 52363U 22045AJ  24170.65112524  .00002249  00000-0  15936-3 0  9996,2 52363  53.2138 142.9834 0001407  89.3877 270.7276 15.08840335120829,6917.879,95.438,540.718,538.771,0.0
52363.0,STARLINK-3830,PAYLOAD,2024-06-19 04:20:42,15.08834313,0.0001423,53.214,140.6038,91.266,268.8495,-4.7457e-05,-1.043e-05,0.0,0 STARLINK-3830,1 52363U 22045AJ  24171.18104723 -.00001043  00000-0 -47457-4 0  9994,2 52363  53.2140 140.6038 0001423  91.2660 268.8495 15.08834313120902,6917.898,95.438,540.747,538.778,0.0
52363.0,STARLINK-3830,PAYLOAD,2024-06-19 21:49:57,15.08834549,0.0001632,53.2155,137.3325,95.1593,264.9585,-0.00011102,-2.054e-05,0.0,0 STARLINK-3830,1 52363U 22045AJ  24171.90968768 -.00002054  00000-0 -11102-3 0  9991,2 52363  53.2155 137.3325 0001632  95.1593 264.9585 15.08834549121011,6917.897,95.438,540.891,538.633,0.0
52363.0,STARLINK-3830,PAYLOAD,2024-06-20 07:22:15,15.08834401,0.000161,53.216,135.5478,97.7585,262.359,-8.3934e-05,-1.623e-05,0.0,0 STARLINK-3830,1 52363U 22045AJ  24172.30712808 -.00001623  00000-0 -83934-4 0  9992,2 52363  53.2160 135.5478 0001610  97.7585 262.3590 15.08834401121072,6917.898,95.438,540.876,538.649,0.0
52363.0,STARLINK-3830,PAYLOAD,2024-06-21 04:02:16,15.08832987,0.0001607,53.2168,131.6826,97.9006,262.2169,-9.0291e-05,-1.724e-05,0.0,0 STARLINK-3830,1 52363U 22045AJ  24173.16825013 -.00001724  00000-0 -90291-4 0  9996,2 52363  53.2168 131.6826 0001607  97.9006 262.2169 15.08832987121203,6917.902,95.438,540.879,538.655,0.0
52363.0,STARLINK-3830,PAYLOAD,2024-06-22 03:53:04,15.08831793,0.0001383,53.216,127.2213,96.1051,264.0099,-9.0896e-05,-1.734e-05,0.0,0 STARLINK-3830,1 52363U 22045AJ  24174.16185270 -.00001734  00000-0 -90896-4 0  9993,2 52363  53.2160 127.2213 0001383  96.1051 264.0099 15.08831793121350,6917.905,95.438,540.727,538.814,0.0
52363.0,STARLINK-3830,PAYLOAD,2024-06-22 07:03:50,15.08831037,0.0001384,53.2161,126.6267,96.2034,263.9116,-0.00010422,-1.946e-05,0.0,0 STARLINK-3830,1 52363U 22045AJ  24174.29433337 -.00001946  00000-0 -10422-3 0  9998,2 52363  53.2161 126.6267 0001384  96.2034 263.9116 15.08831037121377,6917.908,95.438,540.73,538.815,0.0
52363.0,STARLINK-3830,PAYLOAD,2024-06-22 21:22:18,15.08835583,0.000135,53.2162,123.9518,101.7295,258.3848,-2.7559e-06,-3.32e-06,0.0,0 STARLINK-3830,1 52363U 22045AJ  24174.89049302 -.00000332  00000-0 -27559-5 0  9998,2 52363  53.2162 123.9518 0001350 101.7295 258.3848 15.08835583121461,6917.894,95.438,540.693,538.825,0.0
52363.0,STARLINK-3830,PAYLOAD,2024-06-23 05:19:14,15.08839526,0.0001341,53.2162,122.465,96.9131,263.2014,8.9494e-05,1.137e-05,0.0,0 STARLINK-3830,1 52363U 22045AJ  24175.22169244  .00001137  00000-0  89494-4 0  9991,2 52363  53.2162 122.4650 0001341  96.9131 263.2014 15.08839526121513,6917.882,95.438,540.675,538.819,0.0
52363.0,STARLINK-3830,PAYLOAD,2024-06-24 05:10:01,15.08843309,0.0001318,53.2165,118.0049,96.6155,263.4987,0.0001185,1.599e-05,0.0,0 STARLINK-3830,1 52363U 22045AJ  24176.21529107  .00001599  00000-0  11850-3 0  9991,2 52363  53.2165 118.0049 0001318  96.6155 263.4987 15.08843309121667,6917.87,95.437,540.647,538.823,0.0
52363.0,STARLINK-3830,PAYLOAD,2024-06-25 03:25:25,15.08831085,0.0001716,53.2173,113.8365,71.1684,288.9494,-0.00018003,-3.151e-05,0.0,0 STARLINK-3830,1 52363U 22045AJ  24177.14265633 -.00003151  00000-0 -18003-3 0  9990,2 52363  53.2173 113.8365 0001716  71.1684 288.9494 15.08831085121806,6917.908,95.438,540.96,538.586,0.0
52363.0,STARLINK-3830,PAYLOAD,2024-06-26 03:16:12,15.0884657,0.0001771,53.2164,109.3743,72.5673,287.5512,0.00033191,4.999e-05,0.0,0 STARLINK-3830,1 52363U 22045AJ  24178.13625424  .00004999  00000-0  33191-3 0  9992,2 52363  53.2164 109.3743 0001771  72.5673 287.5512 15.08846570121957,6917.86,95.437,540.95,538.5,0.0
52363.0,STARLINK-3830,PAYLOAD,2024-06-27 01:31:36,15.08836514,0.0001493,53.2159,105.2181,95.5669,264.5493,-7.2517e-05,-1.442e-05,0.0,0 STARLINK-3830,1 52363U 22045AJ  24179.06361478 -.00001442  00000-0 -72517-4 0  9999,2 52363  53.2159 105.2181 0001493  95.5669 264.5493 15.08836514122099,6917.891,95.438,540.789,538.723,0.0
52363.0,STARLINK-3830,PAYLOAD,2024-06-27 12:39:17,15.08846453,0.000141,53.2157,103.1366,99.2205,260.8946,0.00020957,3.05e-05,0.0,0 STARLINK-3830,1 52363U 22045AJ  24179.52729164  .00003050  00000-0  20957-3 0  9995,2 52363  53.2157 103.1366 0001410  99.2205 260.8946 15.08846453122168,6917.861,95.437,540.701,538.75,0.0
52363.0,STARLINK-3830,PAYLOAD,2024-06-27 22:11:37,15.08840253,0.0001974,53.2151,101.3468,121.6418,238.4767,-3.0261e-05,-7.7e-06,0.0,0 STARLINK-3830,1 52363U 22045AJ  24179.92473450 -.00000770  00000-0 -30261-4 0  9991,2 52363  53.2151 101.3468 0001974 121.6418 238.4767 15.08840253122227,6917.88,95.438,541.11,538.379,0.0
52363.0,STARLINK-3830,PAYLOAD,2024-06-28 01:22:23,15.08834852,0.0001624,53.2154,100.7563,102.754,257.3633,-2.0337e-05,-6.12e-06,0.0,0 STARLINK-3830,1 52363U 22045AJ  24180.05721536 -.00000612  00000-0 -20337-4 0  9996,2 52363  53.2154 100.7563 0001624 102.7540 257.3633 15.08834852122249,6917.896,95.438,540.885,538.638,0.0
52363.0,STARLINK-3830,PAYLOAD,2024-06-28 22:02:26,15.08808406,0.0001171,53.2154,96.8916,76.3985,283.7138,-0.00017918,-3.136e-05,0.0,0 STARLINK-3830,1 52363U 22045AJ  24180.91835759 -.00003136  00000-0 -17918-3 0  9998,2 52363  53.2154  96.8916 0001171  76.3985 283.7138 15.08808406122375,6917.977,95.44,540.652,539.032,0.0
52363.0,STARLINK-3830,PAYLOAD,2024-06-29 04:23:58,15.08847707,0.0001365,53.215,95.7012,106.3684,253.7458,0.0013171,0.0002074,0.0,0 STARLINK-3830,1 52363U 22045AJ  24181.18331686  .00020740  00000-0  13171-2 0  9992,2 52363  53.2150  95.7012 0001365 106.3684 253.7458 15.08847707122415,6917.857,95.437,540.666,538.778,0.0
52363.0,STARLINK-3830,PAYLOAD,2024-06-29 21:53:13,15.08836024,0.0001626,53.216,92.4314,123.153,236.9619,0.00086939,0.00013574,0.0,0 STARLINK-3830,1 52363U 22045AJ  24181.91195680  .00013574  00000-0  86939-3 0  9995,2 52363  53.2160  92.4314 0001626 123.1530 236.9619 15.08836024122526,6917.893,95.438,540.882,538.633,0.0
